CSS (TIANHE)            
1 48274U 21035A   24112.18064602  .00027971  00000+0  28521-3 0  9999
2 48274  41.4680  71.3301 0005822  49.1257 311.0087 15.64440435170172
